SENTINEL-6              
1 46984U 20086A   23325.30042712 -.00000040  00000+0  89559-4 0  9995
2 46984  66.0410 285.1273 0007876 268.7575  91.2538 12.80931414140192
